{
  "type": "FeatureCollection",
  "features": [
    {
      "type": "Feature",
      "properties": {
        "norad_id": 26766,
        "name": "INTELSAT 10 (IS-10)",
        "group": "intelsat",
        "lat": 6.929862615900627,
        "lon": 113.84189293990175,
        "alt_km": 36157.344646141944,
        "timestamp": "2025-12-21T18:54:58.160679+00:00",
        "meta_object_name": "INTELSAT 10 (IS-10)",
        "meta_object_id": "2001-019A",
        "meta_epoch": "2025-12-21T14:52:07.850784",
        "meta_mean_motion": 0.9907389,
        "meta_eccentricity": 0.00077398,
        "meta_inclination": 8.6491,
        "meta_ra_of_asc_node": 61.0673,
        "meta_arg_of_pericenter": 228.576,
        "meta_mean_anomaly": 124.3765,
        "meta_ephemeris_type": 0,
        "meta_classification_type": "U",
        "meta_norad_cat_id": 26766,
        "meta_element_set_no": 999,
        "meta_rev_at_epoch": 4381,
        "meta_bstar": 0,
        "meta_mean_motion_dot": -7.5e-07,
        "meta_mean_motion_ddot": 0,
        "tle_line1": "1 26766U 01019A   25355.61953531 -.00000075  00000+0  00000+0 0  9992",
        "tle_line2": "2 26766   8.6491  61.0673 0007739 228.5760 124.3765  0.99073890 43815"
      },
      "geometry": {
        "type": "Point",
        "coordinates": [
          113.84189293990175,
          6.929862615900627
        ]
      }
    },
    {
      "type": "Feature",
      "properties": {
        "norad_id": 26900,
        "name": "INTELSAT 902 (IS-902)",
        "group": "intelsat",
        "lat": -5.355112896504503,
        "lon": -35.85221923635402,
        "alt_km": 35778.28312250622,
        "timestamp": "2025-12-21T18:54:58.160703+00:00",
        "meta_object_name": "INTELSAT 902 (IS-902)",
        "meta_object_id": "2001-039A",
        "meta_epoch": "2025-12-15T13:09:02.081664",
        "meta_mean_motion": 1.0027087,
        "meta_eccentricity": 0.00045028,
        "meta_inclination": 5.6536,
        "meta_ra_of_asc_node": 74.0372,
        "meta_arg_of_pericenter": 189.6359,
        "meta_mean_anomaly": 327.9329,
        "meta_ephemeris_type": 0,
        "meta_classification_type": "U",
        "meta_norad_cat_id": 26900,
        "meta_element_set_no": 999,
        "meta_rev_at_epoch": 8885,
        "meta_bstar": 0,
        "meta_mean_motion_dot": -2.65e-06,
        "meta_mean_motion_ddot": 0,
        "tle_line1": "1 26900U 01039A   25349.54794076 -.00000265  00000+0  00000+0 0  9997",
        "tle_line2": "2 26900   5.6536  74.0372 0004502 189.6359 327.9329  1.00270870 88858"
      },
      "geometry": {
        "type": "Point",
        "coordinates": [
          -35.85221923635402,
          -5.355112896504503
        ]
      }
    },
    {
      "type": "Feature",
      "properties": {
        "norad_id": 27380,
        "name": "INTELSAT 904 (IS-904)",
        "group": "intelsat",
        "lat": -6.487590271946416,
        "lon": -17.145453793288286,
        "alt_km": 35779.99472050495,
        "timestamp": "2025-12-21T18:54:58.160719+00:00",
        "meta_object_name": "INTELSAT 904 (IS-904)",
        "meta_object_id": "2002-007A",
        "meta_epoch": "2025-12-21T11:20:13.445376",
        "meta_mean_motion": 1.00270601,
        "meta_eccentricity": 0.00018754,
        "meta_inclination": 6.475,
        "meta_ra_of_asc_node": 71.332,
        "meta_arg_of_pericenter": 249.2884,
        "meta_mean_anomaly": 268.2201,
        "meta_ephemeris_type": 0,
        "meta_classification_type": "U",
        "meta_norad_cat_id": 27380,
        "meta_element_set_no": 999,
        "meta_rev_at_epoch": 4998,
        "meta_bstar": 0,
        "meta_mean_motion_dot": -2.08e-06,
        "meta_mean_motion_ddot": 0,
        "tle_line1": "1 27380U 02007A   25355.47237784 -.00000208  00000+0  00000+0 0  9990",
        "tle_line2": "2 27380   6.4750  71.3320 0001875 249.2884 268.2201  1.00270601 49986"
      },
      "geometry": {
        "type": "Point",
        "coordinates": [
          -17.145453793288286,
          -6.487590271946416
        ]
      }
    },
    {
      "type": "Feature",
      "properties": {
        "norad_id": 27426,
        "name": "DIRECTV 5 (TEMPO 1)",
        "group": "intelsat",
        "lat": -0.53775920267039,
        "lon": -95.80420729377148,
        "alt_km": 35773.14553058525,
        "timestamp": "2025-12-21T18:54:58.160733+00:00",
        "meta_object_name": "DIRECTV 5 (TEMPO 1)",
        "meta_object_id": "2002-023A",
        "meta_epoch": "2025-12-21T12:47:29.846112",
        "meta_mean_motion": 1.00271719,
        "meta_eccentricity": 0.00031526,
        "meta_inclination": 4.4231,
        "meta_ra_of_asc_node": 77.5502,
        "meta_arg_of_pericenter": 199.4704,
        "meta_mean_anomaly": 255.0854,
        "meta_ephemeris_type": 0,
        "meta_classification_type": "U",
        "meta_norad_cat_id": 27426,
        "meta_element_set_no": 999,
        "meta_rev_at_epoch": 8634,
        "meta_bstar": 0,
        "meta_mean_motion_dot": -3.8e-07,
        "meta_mean_motion_ddot": 0,
        "tle_line1": "1 27426U 02023A   25355.53298433 -.00000038  00000+0  00000+0 0  9995",
        "tle_line2": "2 27426   4.4231  77.5502 0003152 199.4704 255.0854  1.00271719 86346"
      },
      "geometry": {
        "type": "Point",
        "coordinates": [
          -95.80420729377148,
          -0.53775920267039
        ]
      }
    },
    {
      "type": "Feature",
      "properties": {
        "norad_id": 27438,
        "name": "INTELSAT 905 (IS-905)",
        "group": "intelsat",
        "lat": 1.595171762221562,
        "lon": -122.79286210185224,
        "alt_km": 35776.64688485828,
        "timestamp": "2025-12-21T18:54:58.160745+00:00",
        "meta_object_name": "INTELSAT 905 (IS-905)",
        "meta_object_id": "2002-027A",
        "meta_epoch": "2025-12-21T11:38:50.085024",
        "meta_mean_motion": 1.00272793,
        "meta_eccentricity": 0.00026882,
        "meta_inclination": 6.3061,
        "meta_ra_of_asc_node": 71.9555,
        "meta_arg_of_pericenter": 203.6165,
        "meta_mean_anomaly": 212.2349,
        "meta_ephemeris_type": 0,
        "meta_classification_type": "U",
        "meta_norad_cat_id": 27438,
        "meta_element_set_no": 999,
        "meta_rev_at_epoch": 4958,
        "meta_bstar": 0,
        "meta_mean_motion_dot": 1.12e-06,
        "meta_mean_motion_ddot": 0,
        "tle_line1": "1 27438U 02027A   25355.48530191  .00000112  00000+0  00000+0 0  9998",
        "tle_line2": "2 27438   6.3061  71.9555 0002688 203.6165 212.2349  1.00272793 49581"
      },
      "geometry": {
        "type": "Point",
        "coordinates": [
          -122.79286210185224,
          1.595171762221562
        ]
      }
    },
    {
      "type": "Feature",
      "properties": {
        "norad_id": 27445,
        "name": "GALAXY 3C (G-3C)",
        "group": "intelsat",
        "lat": -1.0996890272395188,
        "lon": -80.53322997569312,
        "alt_km": 35788.518134488375,
        "timestamp": "2025-12-21T18:54:58.160757+00:00",
        "meta_object_name": "GALAXY 3C (G-3C)",
        "meta_object_id": "2002-030A",
        "meta_epoch": "2025-12-21T12:54:15.360192",
        "meta_mean_motion": 1.00271958,
        "meta_eccentricity": 0.00011316,
        "meta_inclination": 3.2843,
        "meta_ra_of_asc_node": 80.4144,
        "meta_arg_of_pericenter": 79.956,
        "meta_mean_anomaly": 28.6921,
        "meta_ephemeris_type": 0,
        "meta_classification_type": "U",
        "meta_norad_cat_id": 27445,
        "meta_element_set_no": 999,
        "meta_rev_at_epoch": 4471,
        "meta_bstar": 0,
        "meta_mean_motion_dot": -1.32e-06,
        "meta_mean_motion_ddot": 0,
        "tle_line1": "1 27445U 02030A   25355.53767778 -.00000132  00000+0  00000+0 0  9992",
        "tle_line2": "2 27445   3.2843  80.4144 0001131  79.9560  28.6921  1.00271958 44714"
      },
      "geometry": {
        "type": "Point",
        "coordinates": [
          -80.53322997569312,
          -1.0996890272395188
        ]
      }
    },
    {
      "type": "Feature",
      "properties": {
        "norad_id": 27513,
        "name": "INTELSAT 906 (IS-906)",
        "group": "intelsat",
        "lat": 0.33732069145148114,
        "lon": 78.48151418767601,
        "alt_km": 35811.398982759645,
        "timestamp": "2025-12-21T18:54:58.160770+00:00",
        "meta_object_name": "INTELSAT 906 (IS-906)",
        "meta_object_id": "2002-041A",
        "meta_epoch": "2025-12-21T04:56:34.091232",
        "meta_mean_motion": 1.00272969,
        "meta_eccentricity": 0.0006318,
        "meta_inclination": 5.3511,
        "meta_ra_of_asc_node": 75.1309,
        "meta_arg_of_pericenter": 199.595,
        "meta_mean_anomaly": 313.578,
        "meta_ephemeris_type": 0,
        "meta_classification_type": "U",
        "meta_norad_cat_id": 27513,
        "meta_element_set_no": 999,
        "meta_rev_at_epoch": 8524,
        "meta_bstar": 0,
        "meta_mean_motion_dot": 3.2e-07,
        "meta_mean_motion_ddot": 0,
        "tle_line1": "1 27513U 02041A   25355.20595013  .00000032  00000+0  00000+0 0  9993",
        "tle_line2": "2 27513   5.3511  75.1309 0006318 199.5950 313.5780  1.00272969 85248"
      },
      "geometry": {
        "type": "Point",
        "coordinates": [
          78.48151418767601,
          0.33732069145148114
        ]
      }
    }
  ]
}